COSMOS 2251 DEB         
1 34918U 93036ADP 26058.73686052  .00007608  00000+0  14931-2 0  9994
2 34918  74.0710 166.5626 0026893 113.3417  37.3040 14.62624432664610
COSMOS 2251 DEB         
1 34924U 93036ADV 26062.70297759  .00004283  00000+0  86478-3 0  9997
2 34924  74.0397 294.8843 0053881 357.1109  62.2774 14.60808539889055
COSMOS 2251 DEB         
1 34944U 93036ADX 26062.47917183  .00001572  00000+0  65947-3 0  9999
2 34944  73.7460  86.3442 0222554 280.7008  76.9145 14.14402862652248
COSMOS 2251 DEB         
1 34946U 93036ADZ 26059.06138575  .00003016  00000+0  58945-3 0  9997
2 34946  74.0228 193.9066 0051718 310.6161  49.0512 14.62511817893394
COSMOS 2251 DEB         
1 34949U 93036AEC 26059.40082795  .00002952  00000+0  42758-3 0  9993
2 34949  74.0190 317.8773 0077355  83.5544 277.4430 14.74531253895064
COSMOS 2251 DEB         
1 34953U 93036AEG 26062.52877633  .00007100  00000+0  11592-2 0  9999
2 34953  74.0899 231.4983 0056905 204.1183 214.9165 14.69987828893153
COSMOS 2251 DEB         
1 34955U 93036AEJ 26056.78033026  .00006700  00000+0  48246-3 0  9994
2 34955  74.0350  93.6554 0072226 145.6439 214.9452 15.02261381911603
COSMOS 2251 DEB         
1 34962U 93036AER 26062.35303120  .00002063  00000+0  57527-3 0  9997
2 34962  74.0295  42.7368 0017094 144.5722 215.6576 14.46838944887443
COSMOS 2251 DEB         
1 34963U 93036AES 26058.24465479  .00004250  00000+0  10482-2 0  9995
2 34963  74.1684 259.9025 0041035  72.0297 288.5332 14.51927779879118
COSMOS 2251 DEB         
1 34964U 93036AET 26061.08186653  .00002549  00000+0  14172-2 0  9995
2 34964  73.9689 209.7047 0210292  50.3303 311.6169 14.00978422855898
COSMOS 2251 DEB         
1 34965U 93036AEU 26062.16759072  .00001256  00000+0  33751-3 0  9996
2 34965  74.0541 337.8704 0024258  84.7044 275.6883 14.48931881882789
COSMOS 2251 DEB         
1 34967U 93036AEW 26057.44062581  .00001725  00000+0  50050-3 0  9997
2 34967  73.9926 112.6011 0041714 244.3813 115.3031 14.44660564660502
COSMOS 2251 DEB         
1 34968U 93036AEX 26062.44736664  .00000757  00000+0  15746-3 0  9991
2 34968  74.0367  93.2031 0087066 194.8864 164.9738 14.59562133896554
COSMOS 2251 DEB         
1 34969U 93036AEY 26054.87929306  .00000615  00000+0  22991-3 0  9990
2 34969  74.0115 249.4806 0074250   3.6645 356.5033 14.32401751661844
COSMOS 2251 DEB         
1 34971U 93036AFA 26061.55721157  .00000793  00000+0  18216-3 0  9992
2 34971  73.9781 133.2106 0070744 337.8906  86.0710 14.55781583673347
COSMOS 2251 DEB         
1 34972U 93036AFB 26061.97229275  .00010386  00000+0  15421-2 0  9996
2 34972  73.9844 252.8864 0033210  27.8226 122.6027 14.74736450888323
